OBJECT_NAME,OBJECT_ID,EPOCH,MEAN_MOTION,ECCENTRICITY,INCLINATION,RA_OF_ASC_NODE,ARG_OF_PERICENTER,MEAN_ANOMALY,EPHEMERIS_TYPE,CLASSIFICATION_TYPE,NORAD_CAT_ID,ELEMENT_SET_NO,REV_AT_EPOCH,BSTAR,MEAN_MOTION_DOT,MEAN_MOTION_DDOT
STARLINK-4276,2022-083AZ,2023-02-01T08:49:33.805632,15.08843558,.0001676,53.2202,166.9017,67.1880,292.9289,0,U,53179,999,3097,.24679E-4,.105E-5,0
STARLINK-4258,2022-083BA,2023-02-01T17:13:01.067808,15.08840455,.0001373,53.2188,165.5277,81.1673,278.9474,0,U,53180,999,3166,.1198E-3,.1619E-4,0
STARLINK-4273,2022-083BB,2023-02-01T12:22:56.043552,15.08840932,.0001121,53.2193,166.4030,87.2803,272.8317,0,U,53181,999,3163,.20966E-4,.46E-6,0
STARLINK-4278,2022-083BC,2023-02-01T13:06:02.555424,15.08812185,.0001324,53.2161,181.5115,94.4594,265.6549,0,U,53182,999,3142,.32798E-3,.4932E-4,0
STARLINK-4268,2022-083BD,2023-02-01T08:42:25.971840,15.08814387,.0001345,53.2151,172.3272,87.1836,272.9311,0,U,53183,999,3089,-.13226E-3,-.2391E-4,0
STARLINK-4257,2022-083BE,2023-02-01T08:44:16.022976,15.08830761,.0001556,53.2168,166.9038,90.6670,269.4500,0,U,53184,999,3161,-.17795E-4,-.571E-5,0
STARLINK-4391,2022-084A,2023-02-02T03:46:13.296576,15.01256253,.0001372,97.6564,96.1564,121.6660,238.4698,0,U,53189,999,2993,-.11477E-4,-.206E-5,0
STARLINK-4332,2022-084B,2023-02-02T02:53:15.098496,15.01257666,.0001482,97.6602,96.1221,98.1732,261.9661,0,U,53190,999,2992,.5091E-4,.595E-5,0
STARLINK-4369,2022-084C,2023-02-02T03:38:13.040448,15.01260328,.0000804,97.6577,96.1401,133.1592,226.9699,0,U,53191,999,2992,.29333E-4,.318E-5,0
STARLINK-4375,2022-084D,2023-02-02T03:35:33.071712,15.01259760,.0000525,97.6571,96.1362,145.7548,214.3710,0,U,53192,999,2992,-.29284E-4,-.435E-5,0
STARLINK-4351,2022-084E,2023-02-02T03:43:33.392640,15.01256995,.0001424,97.6578,96.1464,110.4047,249.7330,0,U,53193,999,2993,-.30515E-4,-.451E-5,0
STARLINK-4382,2022-084F,2023-02-01T18:05:00.643488,15.01253162,.0001165,97.6577,95.7486,117.6509,242.4834,0,U,53194,999,2986,-.8568E-4,-.1159E-4,0
STARLINK-4404,2022-084G,2023-02-01T17:57:22.161024,15.01259988,.0001956,97.6561,95.7511,93.5400,266.6048,0,U,53195,999,2986,.10954E-4,.82E-6,0
STARLINK-4407,2022-084H,2023-02-02T03:35:54.229344,15.01259108,.0000477,97.6570,96.1374,157.0937,203.0308,0,U,53196,999,2992,-.35057E-4,-.509E-5,0
STARLINK-4403,2022-084J,2023-02-02T03:27:33.089472,15.01257522,.0000666,97.6573,96.1296,237.9348,122.1812,0,U,53197,999,2992,-.42465E-4,-.604E-5,0
STARLINK-4385,2022-084K,2023-02-02T03:32:53.098656,15.01257747,.0000299,97.6570,96.1346,204.2352,155.8858,0,U,53198,999,2992,-.21215E-4,-.331E-5,0
STARLINK-4395,2022-084L,2023-02-02T03:24:53.073216,15.01258708,.00006,97.6579,96.1284,231.0312,129.0858,0,U,53199,999,2992,.59937E-5,.18E-6,0
STARLINK-4417,2022-084M,2023-02-02T03:30:12.894912,15.01260485,.0000339,97.6570,96.1322,188.5187,171.6031,0,U,53200,999,2992,-.49208E-5,-.122E-5,0
STARLINK-4405,2022-084N,2023-02-02T03:19:33.088224,15.01259353,.0001209,97.6592,96.1273,165.9459,194.1799,0,U,53201,999,2992,.45802E-5,0,0
STARLINK-4411,2022-084P,2023-02-02T04:03:43.529184,15.00449969,.0002509,97.6586,96.4027,93.7839,266.3671,0,U,53202,999,2994,.47549E-4,.539E-5,0
STARLINK-4409,2022-084Q,2023-02-02T03:14:13.249248,15.01259812,.0001016,97.6601,96.1236,150.6209,209.5072,0,U,53203,999,2992,.51799E-4,.606E-5,0
STARLINK-4410,2022-084R,2023-02-01T12:58:23.849184,15.01264938,.0000634,97.6575,95.5342,223.7605,136.3569,0,U,53204,999,2983,.11336E-3,.1397E-4,0
STARLINK-4397,2022-084S,2023-02-02T03:08:53.670336,15.01255637,.0000326,97.6602,96.1189,128.4702,231.6552,0,U,53205,999,2992,.21653E-4,.219E-5,0
STARLINK-4408,2022-084T,2023-02-02T03:14:34.531296,15.01256778,.0000587,97.6589,96.1196,129.1605,230.9671,0,U,53206,999,2992,-.15829E-4,-.262E-5,0
STARLINK-4413,2022-084U,2023-02-02T03:06:13.243680,15.01262238,.0000979,97.6593,96.1173,112.8370,247.2958,0,U,53207,999,2992,.70376E-4,.845E-5,0
STARLINK-4425,2022-084V,2023-02-02T03:16:53.052960,15.01262535,.0001448,97.6536,96.1150,168.7601,191.3656,0,U,53208,999,2992,-.72657E-4,-.992E-5,0
STARLINK-4423,2022-084W,2023-02-02T03:03:54.603648,15.01264014,.000119,97.6607,96.1164,97.7128,262.4231,0,U,53209,999,2992,.10246E-3,.1257E-4,0
STARLINK-4427,2022-084X,2023-02-02T03:11:33.081792,15.01260327,.0000188,97.6584,96.1189,151.1470,208.9764,0,U,53210,999,2992,.69471E-4,.833E-5,0
STARLINK-4419,2022-084Y,2023-02-02T02:58:13.661472,15.01259983,.000121,97.6612,96.1202,102.1045,258.0314,0,U,53211,999,2992,.76973E-4,.93E-5,0
STARLINK-4416,2022-084Z,2023-02-02T03:03:33.706944,15.01254418,.000068,97.6627,96.1186,107.4653,252.6645,0,U,53212,999,2992,.66682E-4,.797E-5,0
STARLINK-4414,2022-084AA,2023-02-02T02:50:14.130240,15.01258608,.0001771,97.6584,96.1236,97.1684,262.9742,0,U,53213,999,2992,.44604E-4,.514E-5,0
STARLINK-4353,2022-084AB,2023-02-02T03:00:53.648352,15.01260054,.0001198,97.6609,96.1192,99.0053,261.1307,0,U,53214,999,2992,.62809E-4,.748E-5,0
STARLINK-4335,2022-084AC,2023-02-02T02:47:34.253088,15.01258280,.0001834,97.6589,96.1224,95.2897,264.8537,0,U,53215,999,2992,.61818E-4,.735E-5,0
STARLINK-4376,2022-084AD,2023-02-02T02:55:33.540672,15.01264626,.000181,97.6603,96.1201,93.9886,266.1545,0,U,53216,999,2992,.14936E-3,.186E-4,0
STARLINK-4379,2022-084AE,2023-02-01T18:42:41.171616,15.01262683,.0002397,97.6574,95.7959,99.0563,261.0933,0,U,53217,999,2987,.14993E-3,.1867E-4,0
STARLINK-4384,2022-084AF,2023-02-02T02:52:55.005312,15.01253381,.0001894,97.6574,96.1241,93.3756,266.7685,0,U,53218,999,2955,-.6413E-4,-.883E-5,0
STARLINK-4373,2022-084AG,2023-02-01T18:37:00.669216,15.01258869,.0002486,97.6548,95.7929,90.6737,269.4772,0,U,53219,999,2950,.46451E-4,.538E-5,0
STARLINK-4363,2022-084AH,2023-02-02T02:44:53.772864,15.01262082,.0001849,97.6574,96.1227,97.6765,262.4669,0,U,53220,999,2955,.8089E-4,.98E-5,0
STARLINK-4377,2022-084AJ,2023-02-01T04:10:30.928512,15.01268962,.0002233,97.6560,95.1990,95.7614,264.3864,0,U,53221,999,2940,.12933E-3,.1603E-4,0
STARLINK-4381,2022-084AK,2023-02-02T02:42:14.186880,15.01261918,.0002151,97.6565,96.1201,96.8641,263.2828,0,U,53222,999,2992,-.31068E-4,-.458E-5,0
STARLINK-4354,2022-084AL,2023-02-02T02:31:34.220352,15.01260392,.000209,97.6548,96.1154,96.8240,263.3222,0,U,53223,999,2954,.13135E-4,.11E-5,0
STARLINK-4356,2022-084AM,2023-02-01T04:15:51.365376,15.01250085,.0001743,97.6563,95.2007,103.8882,256.2536,0,U,53224,999,2940,.4995E-3,.6361E-4,0
STARLINK-4358,2022-084AN,2023-02-02T04:02:13.107264,15.01260503,.000195,97.6542,96.1732,95.7733,264.3713,0,U,53225,999,2955,.88012E-4,.1072E-4,0
STARLINK-4359,2022-084AP,2023-02-02T02:31:55.122240,15.01259026,.0002107,97.6554,96.1151,98.2907,261.8556,0,U,53226,999,2955,-.12355E-4,-.218E-5,0
STARLINK-4366,2022-084AQ,2023-02-01T18:21:21.819168,15.01253951,.000247,97.6553,95.7771,104.2565,255.8934,0,U,53227,999,2949,.17081E-3,.2135E-4,0
STARLINK-4365,2022-084AR,2023-02-01T18:29:00.642912,15.01256922,.0002706,97.6528,95.7902,86.9731,273.1802,0,U,53228,999,2949,-.57413E-4,-.796E-5,0
STARLINK-4367,2022-084AS,2023-02-01T18:20:59.812224,15.01249152,.0002079,97.6543,95.7728,90.8125,269.3337,0,U,53229,999,2949,-.26021E-3,-.3399E-4,0
STARLINK-4364,2022-084AT,2023-02-01T13:35:43.936800,15.01263811,.0001916,97.6538,95.5822,101.1212,259.0227,0,U,53230,999,2984,.62392E-4,.743E-5,0
STARLINK-4370,2022-084AU,2023-02-01T03:51:51.270048,15.01262359,.0001642,97.6534,95.1805,103.8982,256.2425,0,U,53231,999,2940,.19365E-4,.19E-5,0
STARLINK-4371,2022-084AV,2023-02-02T03:54:13.082688,15.01258922,.0001605,97.6549,96.1643,101.7268,258.4137,0,U,53232,999,2955,.18736E-4,.182E-5,0
STARLINK-4372,2022-084AW,2023-02-02T03:48:53.030304,15.01260798,.0001564,97.6570,96.1516,110.7206,249.4186,0,U,53233,999,2955,.58574E-4,.693E-5,0
STARLINK-4368,2022-084AX,2023-02-02T03:46:34.550976,15.01253171,.0001483,97.6573,96.1512,108.2161,251.9225,0,U,53234,999,2956,.24933E-4,.261E-5,0
CSS (WENTIAN),2022-085A,2023-01-31T02:47:58.234272,15.60960520,.0002236,41.4749,271.6146,93.2635,35.2260,0,U,53239,999,10039,.1611E-3,.13587E-3,0
STARLINK-4056,2022-086A,2023-02-01T20:38:00.252096,15.09095441,.0002179,53.2092,240.0950,98.0599,262.0641,0,U,53242,999,2994,-.20287E-2,-.32657E-3,0
STARLINK-4047,2022-086B,2023-02-01T17:28:57.946080,15.08837877,.000128,53.2164,245.6816,87.3792,272.7347,0,U,53243,999,2985,.37097E-4,.303E-5,0
STARLINK-4125,2022-086C,2023-02-01T17:13:03.513792,15.08822748,.000134,53.2133,245.7382,88.2530,271.8616,0,U,53244,999,2985,.70474E-3,.10941E-3,0
STARLINK-4124,2022-086D,2023-02-01T23:45:11.768256,15.08844652,.0001402,53.2156,244.5173,89.4191,270.6962,0,U,53245,999,2989,.12726E-3,.1738E-4,0
STARLINK-4131,2022-086E,2023-02-01T14:07:35.340672,15.08841202,.0001227,53.2151,246.3173,92.7794,267.3338,0,U,53246,999,2983,.10436E-3,.1373E-4,0
STARLINK-4061,2022-086F,2023-02-01T20:33:49.241088,15.08849117,.00017,53.2109,240.1229,88.0982,272.0205,0,U,53247,999,2994,.33037E-4,.238E-5,0
STARLINK-4135,2022-086G,2023-02-01T14:06:58.891968,15.08840789,.0001076,53.2141,241.3238,80.8837,279.2277,0,U,53248,999,2990,.58793E-4,.648E-5,0
STARLINK-4128,2022-086H,2023-02-01T00:06:20.948832,15.08839327,.000131,53.2112,238.9523,87.6300,272.4842,0,U,53249,999,3008,.21669E-3,.3162E-4,0
STARLINK-4059,2022-086J,2023-02-01T12:54:43.743456,15.08838792,.0001224,53.2122,236.5503,91.4062,268.7070,0,U,53250,999,3016,.10985E-3,.1461E-4,0
STARLINK-4129,2022-086K,2023-02-01T23:46:31.228608,15.08833215,.0001153,53.2137,234.5189,86.0976,274.0147,0,U,53251,999,3003,-.13547E-3,-.2443E-4,0
STARLINK-4132,2022-086L,2023-02-01T22:23:07.261152,15.08838919,.0001489,53.2104,234.7823,93.0815,267.0347,0,U,53252,999,3002,.56569E-4,.612E-5,0
STARLINK-4133,2022-086M,2023-02-01T14:08:54.705984,15.08842208,.0001549,53.2146,236.3170,89.4740,270.6429,0,U,53253,999,3015,.29348E-4,.179E-5,0
STARLINK-4134,2022-086N,2023-02-01T23:51:49.816512,15.08835222,.0001141,53.2128,234.5020,75.6070,284.5049,0,U,53254,999,3003,.49888E-4,.506E-5,0
